{"fetched_at":"2026-03-28T08:37:37Z","count":1678,"tles":[{"name":"ENVISAT","line1":"1 27386U 02009A   26086.49230409  .00000124  00000+0  53909-4 0  9996","line2":"2 27386  98.3756  39.6689 0001211  81.3962  35.7099 14.39042973261735","category":"Other"},{"name":"HELIOS 1B","line1":"1 25977U 99064A   26086.60428894  .00001579  00000+0  17944-3 0  9990","line2":"2 25977  98.1675 349.3725 0001895  50.1658 309.9724 14.87764738687920","category":"Other"},{"name":"ISS (ZARYA)","line1":"1 25544U 98067A   26086.39031751  .00012703  00000+0  24174-3 0  9994","line2":"2 25544  51.6344 344.8561 0006230 238.3142 121.7239 15.48581373559076","category":"ISS"},{"name":"TERRA","line1":"1 25994U 99068A   26086.60769198  .00000382  00000+0  86956-4 0  9999","line2":"2 25994  97.9556 139.3547 0003542 114.1615  39.4169 14.61032940397693","category":"Other"},{"name":"SL-16 R/B","line1":"1 26070U 00006B   26086.32206348  .00000311  00000+0  18229-3 0  9990","line2":"2 26070  71.0017  60.7587 0015822 162.2486 197.9194 14.15826157351057","category":"Other"},{"name":"DELTA 2 R/B","line1":"1 25876U 99041E   26086.56432392  .00000760  00000+0  16178-3 0  9995","line2":"2 25876  51.7605 229.8761 0502647  41.1486 322.6232 14.11876591365554","category":"Other"},{"name":"TITAN 4B R/B","line1":"1 26474U 00047B   26086.58518202  .00003521  00000+0  22217-3 0  9994","line2":"2 26474  67.9913 350.1844 0039820  14.4464 345.7813 15.09725135395613","category":"Other"},{"name":"SL-16 R/B","line1":"1 25407U 98045B   26086.58456622 -.00000255  00000+0 -10451-3 0  9991","line2":"2 25407  71.0104 143.9442 0007920 340.2276  19.8539 14.16194394429633","category":"Other"},{"name":"OKEAN-O","line1":"1 25860U 99039A   26086.42886352  .00000659  00000+0  93172-4 0  9996","line2":"2 25860  97.9406 146.1368 0000892  89.5502 270.5812 14.80362908437016","category":"Other"},{"name":"SL-16 R/B","line1":"1 25861U 99039B   26086.59464417  .00000522  00000+0  72928-4 0  9994","line2":"2 25861  97.9927 145.6612 0014457 194.2127 165.8681 14.81754971439513","category":"Other"},{"name":"CZ-4B R/B","line1":"1 25732U 99025C   26086.60471343  .00000048  00000+0  44306-4 0  9996","line2":"2 25732  98.6590 130.4591 0036031 294.0201 229.1374 14.18268749390709","category":"Other"},{"name":"IDEFIX & ARIANE 42P R/B","line1":"1 27422U 02021B   26086.53513792  .00000257  00000+0  11421-3 0  9994","line2":"2 27422  98.5890  24.9303 0012545 131.0658 229.1611 14.31037757246574","category":"Other"}]}