CCSDS_OMM_VERS = 2.0
CREATION_DATE  = 
ORIGINATOR     = 

OBJECT_NAME    = SL-16 R/B
OBJECT_ID      = 1998-045B
CENTER_NAME    = EARTH
REF_FRAME      = TEME
TIME_SYSTEM    = UTC
MEAN_ELEMENT_THEORY = SGP/SGP4

EPOCH          = 2026-03-27T14:01:46.521408
MEAN_MOTION    = 14.16194394
ECCENTRICITY   = .00079209
INCLINATION    = 71.0104
RA_OF_ASC_NODE = 143.9442
ARG_OF_PERICENTER = 340.2276
MEAN_ANOMALY   = 19.8539

EPHEMERIS_TYPE = 0
CLASSIFICATION_TYPE = U
NORAD_CAT_ID   = 25407
ELEMENT_SET_NO = 999
REV_AT_EPOCH   = 42963
BSTAR          = -.1045128E-3
MEAN_MOTION_DOT = -.255E-5
MEAN_MOTION_DDOT = 0

CCSDS_OMM_VERS = 2.0
CREATION_DATE  = 
ORIGINATOR     = 

OBJECT_NAME    = ISS (ZARYA)
OBJECT_ID      = 1998-067A
CENTER_NAME    = EARTH
REF_FRAME      = TEME
TIME_SYSTEM    = UTC
MEAN_ELEMENT_THEORY = SGP/SGP4

EPOCH          = 2026-03-27T09:22:03.432864
MEAN_MOTION    = 15.48581373
ECCENTRICITY   = .00062307
INCLINATION    = 51.6344
RA_OF_ASC_NODE = 344.8561
ARG_OF_PERICENTER = 238.3142
MEAN_ANOMALY   = 121.7239

EPHEMERIS_TYPE = 0
CLASSIFICATION_TYPE = U
NORAD_CAT_ID   = 25544
ELEMENT_SET_NO = 999
REV_AT_EPOCH   = 55907
BSTAR          = .24174273E-3
MEAN_MOTION_DOT = .12703E-3
MEAN_MOTION_DDOT = 0

CCSDS_OMM_VERS = 2.0
CREATION_DATE  = 
ORIGINATOR     = 

OBJECT_NAME    = CZ-4B R/B
OBJECT_ID      = 1999-025C
CENTER_NAME    = EARTH
REF_FRAME      = TEME
TIME_SYSTEM    = UTC
MEAN_ELEMENT_THEORY = SGP/SGP4

EPOCH          = 2026-03-27T14:30:47.240352
MEAN_MOTION    = 14.18268749
ECCENTRICITY   = .00360314
INCLINATION    = 98.6590
RA_OF_ASC_NODE = 130.4591
ARG_OF_PERICENTER = 294.0201
MEAN_ANOMALY   = 229.1374

EPHEMERIS_TYPE = 0
CLASSIFICATION_TYPE = U
NORAD_CAT_ID   = 25732
ELEMENT_SET_NO = 999
REV_AT_EPOCH   = 39070
BSTAR          = .44306088E-4
MEAN_MOTION_DOT = .48E-6
MEAN_MOTION_DDOT = 0

CCSDS_OMM_VERS = 2.0
CREATION_DATE  = 
ORIGINATOR     = 

OBJECT_NAME    = OKEAN-O
OBJECT_ID      = 1999-039A
CENTER_NAME    = EARTH
REF_FRAME      = TEME
TIME_SYSTEM    = UTC
MEAN_ELEMENT_THEORY = SGP/SGP4

EPOCH          = 2026-03-27T10:17:33.808128
MEAN_MOTION    = 14.80362908
ECCENTRICITY   = .00008923
INCLINATION    = 97.9406
RA_OF_ASC_NODE = 146.1368
ARG_OF_PERICENTER = 89.5502
MEAN_ANOMALY   = 270.5812

EPHEMERIS_TYPE = 0
CLASSIFICATION_TYPE = U
NORAD_CAT_ID   = 25860
ELEMENT_SET_NO = 999
REV_AT_EPOCH   = 43701
BSTAR          = .93171696E-4
MEAN_MOTION_DOT = .659E-5
MEAN_MOTION_DDOT = 0

CCSDS_OMM_VERS = 2.0
CREATION_DATE  = 
ORIGINATOR     = 

OBJECT_NAME    = SL-16 R/B
OBJECT_ID      = 1999-039B
CENTER_NAME    = EARTH
REF_FRAME      = TEME
TIME_SYSTEM    = UTC
MEAN_ELEMENT_THEORY = SGP/SGP4

EPOCH          = 2026-03-27T14:16:17.256288
MEAN_MOTION    = 14.81754971
ECCENTRICITY   = .00144571
INCLINATION    = 97.9927
RA_OF_ASC_NODE = 145.6612
ARG_OF_PERICENTER = 194.2127
MEAN_ANOMALY   = 165.8681

EPHEMERIS_TYPE = 0
CLASSIFICATION_TYPE = U
NORAD_CAT_ID   = 25861
ELEMENT_SET_NO = 999
REV_AT_EPOCH   = 43951
BSTAR          = .72928381E-4
MEAN_MOTION_DOT = .522E-5
MEAN_MOTION_DDOT = 0

CCSDS_OMM_VERS = 2.0
CREATION_DATE  = 
ORIGINATOR     = 

OBJECT_NAME    = DELTA 2 R/B
OBJECT_ID      = 1999-041E
CENTER_NAME    = EARTH
REF_FRAME      = TEME
TIME_SYSTEM    = UTC
MEAN_ELEMENT_THEORY = SGP/SGP4

EPOCH          = 2026-03-27T13:32:37.586688
MEAN_MOTION    = 14.11876591
ECCENTRICITY   = .0502647
INCLINATION    = 51.7605
RA_OF_ASC_NODE = 229.8761
ARG_OF_PERICENTER = 41.1486
MEAN_ANOMALY   = 322.6232

EPHEMERIS_TYPE = 0
CLASSIFICATION_TYPE = U
NORAD_CAT_ID   = 25876
ELEMENT_SET_NO = 999
REV_AT_EPOCH   = 36555
BSTAR          = .1617833E-3
MEAN_MOTION_DOT = .76E-5
MEAN_MOTION_DDOT = 0

CCSDS_OMM_VERS = 2.0
CREATION_DATE  = 
ORIGINATOR     = 

OBJECT_NAME    = HELIOS 1B
OBJECT_ID      = 1999-064A
CENTER_NAME    = EARTH
REF_FRAME      = TEME
TIME_SYSTEM    = UTC
MEAN_ELEMENT_THEORY = SGP/SGP4

EPOCH          = 2026-03-27T14:30:10.564416
MEAN_MOTION    = 14.87764738
ECCENTRICITY   = .00018953
INCLINATION    = 98.1675
RA_OF_ASC_NODE = 349.3725
ARG_OF_PERICENTER = 50.1658
MEAN_ANOMALY   = 309.9724

EPHEMERIS_TYPE = 0
CLASSIFICATION_TYPE = U
NORAD_CAT_ID   = 25977
ELEMENT_SET_NO = 999
REV_AT_EPOCH   = 68792
BSTAR          = .17943632E-3
MEAN_MOTION_DOT = .1579E-4
MEAN_MOTION_DDOT = 0

CCSDS_OMM_VERS = 2.0
CREATION_DATE  = 
ORIGINATOR     = 

OBJECT_NAME    = TERRA
OBJECT_ID      = 1999-068A
CENTER_NAME    = EARTH
REF_FRAME      = TEME
TIME_SYSTEM    = UTC
MEAN_ELEMENT_THEORY = SGP/SGP4

EPOCH          = 2026-03-27T14:35:04.587072
MEAN_MOTION    = 14.61032940
ECCENTRICITY   = .0003542
INCLINATION    = 97.9556
RA_OF_ASC_NODE = 139.3547
ARG_OF_PERICENTER = 114.1615
MEAN_ANOMALY   = 39.4169

EPHEMERIS_TYPE = 0
CLASSIFICATION_TYPE = U
NORAD_CAT_ID   = 25994
ELEMENT_SET_NO = 999
REV_AT_EPOCH   = 39769
BSTAR          = .86956424E-4
MEAN_MOTION_DOT = .382E-5
MEAN_MOTION_DDOT = 0

CCSDS_OMM_VERS = 2.0
CREATION_DATE  = 
ORIGINATOR     = 

OBJECT_NAME    = SL-16 R/B
OBJECT_ID      = 2000-006B
CENTER_NAME    = EARTH
REF_FRAME      = TEME
TIME_SYSTEM    = UTC
MEAN_ELEMENT_THEORY = SGP/SGP4

EPOCH          = 2026-03-27T07:43:46.284672
MEAN_MOTION    = 14.15826157
ECCENTRICITY   = .0015822
INCLINATION    = 71.0017
RA_OF_ASC_NODE = 60.7587
ARG_OF_PERICENTER = 162.2486
MEAN_ANOMALY   = 197.9194

EPHEMERIS_TYPE = 0
CLASSIFICATION_TYPE = U
NORAD_CAT_ID   = 26070
ELEMENT_SET_NO = 999
REV_AT_EPOCH   = 35105
BSTAR          = .18228697E-3
MEAN_MOTION_DOT = .311E-5
MEAN_MOTION_DDOT = 0

CCSDS_OMM_VERS = 2.0
CREATION_DATE  = 
ORIGINATOR     = 

OBJECT_NAME    = TITAN 4B R/B
OBJECT_ID      = 2000-047B
CENTER_NAME    = EARTH
REF_FRAME      = TEME
TIME_SYSTEM    = UTC
MEAN_ELEMENT_THEORY = SGP/SGP4

EPOCH          = 2026-03-27T14:02:39.726528
MEAN_MOTION    = 15.09725135
ECCENTRICITY   = .00398208
INCLINATION    = 67.9913
RA_OF_ASC_NODE = 350.1844
ARG_OF_PERICENTER = 14.4464
MEAN_ANOMALY   = 345.7813

EPHEMERIS_TYPE = 0
CLASSIFICATION_TYPE = U
NORAD_CAT_ID   = 26474
ELEMENT_SET_NO = 999
REV_AT_EPOCH   = 39561
BSTAR          = .22216885E-3
MEAN_MOTION_DOT = .3521E-4
MEAN_MOTION_DDOT = 0

CCSDS_OMM_VERS = 2.0
CREATION_DATE  = 
ORIGINATOR     = 

OBJECT_NAME    = ENVISAT
OBJECT_ID      = 2002-009A
CENTER_NAME    = EARTH
REF_FRAME      = TEME
TIME_SYSTEM    = UTC
MEAN_ELEMENT_THEORY = SGP/SGP4

EPOCH          = 2026-03-27T11:48:55.073376
MEAN_MOTION    = 14.39042973
ECCENTRICITY   = .00012117
INCLINATION    = 98.3756
RA_OF_ASC_NODE = 39.6689
ARG_OF_PERICENTER = 81.3962
MEAN_ANOMALY   = 35.7099

EPHEMERIS_TYPE = 0
CLASSIFICATION_TYPE = U
NORAD_CAT_ID   = 27386
ELEMENT_SET_NO = 999
REV_AT_EPOCH   = 26173
BSTAR          = .53909176E-4
MEAN_MOTION_DOT = .124E-5
MEAN_MOTION_DDOT = 0

CCSDS_OMM_VERS = 2.0
CREATION_DATE  = 
ORIGINATOR     = 

OBJECT_NAME    = IDEFIX & ARIANE 42P R/B
OBJECT_ID      = 2002-021B
CENTER_NAME    = EARTH
REF_FRAME      = TEME
TIME_SYSTEM    = UTC
MEAN_ELEMENT_THEORY = SGP/SGP4

EPOCH          = 2026-03-27T12:50:35.916288
MEAN_MOTION    = 14.31037757
ECCENTRICITY   = .00125453
INCLINATION    = 98.5890
RA_OF_ASC_NODE = 24.9303
ARG_OF_PERICENTER = 131.0658
MEAN_ANOMALY   = 229.1611

EPHEMERIS_TYPE = 0
CLASSIFICATION_TYPE = U
NORAD_CAT_ID   = 27422
ELEMENT_SET_NO = 999
REV_AT_EPOCH   = 24657
BSTAR          = .11421393E-3
MEAN_MOTION_DOT = .257E-5
MEAN_MOTION_DDOT = 0

